NORAD_CAT_ID,OBJECT_NAME,OBJECT_TYPE,EPOCH,MEAN_MOTION,ECCENTRICITY,INCLINATION,RA_OF_ASC_NODE,ARG_OF_PERICENTER,MEAN_ANOMALY,BSTAR,MEAN_MOTION_DOT,MEAN_MOTION_DDOT,TLE_LINE0,TLE_LINE1,TLE_LINE2,SEMIMAJOR_AXIS,PERIOD,APOGEE,PERIGEE,DECAYED
50848.0,STARLINK-3315,PAYLOAD,2022-08-30 06:45:50,15.08840619,0.0002648,53.2186,198.5295,48.7977,311.3243,4.8544e-05,4.84e-06,0.0,0 STARLINK-3315,1 50848U 22001AX  22242.28183924  .00000484  00000-0  48544-4 0  9994,2 50848  53.2186 198.5295 0002648  48.7977 311.3243 15.08840619 35910,6917.878000000002,95.438,541.575,537.9119999999998,0.0
50848.0,STARLINK-3315,PAYLOAD,2022-08-30 14:42:46,15.08837845,0.0002458,53.2195,197.042,49.8691,310.2516,3.8839e-05,3.3e-06,0.0,0 STARLINK-3315,1 50848U 22001AX  22242.61304047  .00000330  00000-0  38839-4 0  9998,2 50848  53.2195 197.0420 0002458  49.8691 310.2516 15.08837845 35961,6917.887,95.438,541.452,538.052,0.0
50848.0,STARLINK-3315,PAYLOAD,2022-08-31 06:36:39,15.08831095,0.0001841999999999,53.2185,194.067,60.2486,299.8689,-0.00011776,-2.161e-05,0.0,0 STARLINK-3315,1 50848U 22001AX  22243.27545139 -.00002161  00000-0 -11776-3 0  9996,2 50848  53.2185 194.0670 0001842  60.2486 299.8689 15.08831095 36065,6917.908,95.438,541.047,538.498,0.0
50848.0,STARLINK-3315,PAYLOAD,2022-09-01 04:52:03,15.08828553,0.0002093,53.218,189.9048,55.1591,304.9597,1.9827e-05,2.7e-07,0.0,0 STARLINK-3315,1 50848U 22001AX  22244.20281502  .00000027  00000-0  19827-4 0  9994,2 50848  53.2180 189.9048 0002093  55.1591 304.9597 15.08828553 37513,6917.915,95.438,541.2280000000002,538.332,0.0
50848.0,STARLINK-3315,PAYLOAD,2022-09-01 06:27:26,15.08828814,0.0002093,53.218,189.6074,55.2481,304.8708,2.2302e-05,6.7e-07,0.0,0 STARLINK-3315,1 50848U 22001AX  22244.26905526  .00000067  00000-0  22302-4 0  9995,2 50848  53.2180 189.6074 0002093  55.2481 304.8708 15.08828814 36217,6917.915,95.438,541.227,538.332,0.0
50848.0,STARLINK-3315,PAYLOAD,2022-09-02 06:18:13,15.08833772,0.0002333,53.2186,185.1473,53.451,306.6696,0.00017218,2.453e-05,0.0,0 STARLINK-3315,1 50848U 22001AX  22245.26265421  .00002453  00000-0  17218-3 0  9999,2 50848  53.2186 185.1473 0002333  53.4510 306.6696 15.08833772 37673,6917.899,95.438,541.378,538.15,0.0
50848.0,STARLINK-3315,PAYLOAD,2022-09-02 12:39:45,15.08838492,0.0002346,53.2188,183.958,54.2008,305.9201,0.00018844,2.712e-05,0.0,0 STARLINK-3315,1 50848U 22001AX  22245.52761194  .00002712  00000-0  18844-3 0  9990,2 50848  53.2188 183.9580 0002346  54.2008 305.9201 15.08838492 36403,6917.885,95.438,541.373,538.127,0.0
50848.0,STARLINK-3315,PAYLOAD,2022-09-02 20:36:41,15.08845069,0.000234,53.2187,182.4712,54.3981,305.7229,0.00014162,1.967e-05,0.0,0 STARLINK-3315,1 50848U 22001AX  22245.85880886  .00001967  00000-0  14162-3 0  9996,2 50848  53.2187 182.4712 0002340  54.3981 305.7229 15.08845069 36459,6917.865,95.437,541.349,538.111,0.0
50848.0,STARLINK-3315,PAYLOAD,2022-09-03 04:33:37,15.08836652,0.0002326,53.2188,180.9846,53.6419,306.4788,6.7903e-05,7.92e-06,0.0,0 STARLINK-3315,1 50848U 22001AX  22246.19001752  .00000792  00000-0  67903-4 0  9998,2 50848  53.2188 180.9846 0002326  53.6419 306.4788 15.08836652 37810,6917.891,95.438,541.365,538.1469999999998,0.0
50848.0,STARLINK-3315,PAYLOAD,2022-09-03 12:30:32,15.08840507,0.0002320999999999,53.2189,179.4978,54.9204,305.2005,7.9002e-05,9.69e-06,0.0,0 STARLINK-3315,1 50848U 22001AX  22246.52121485  .00000969  00000-0  79002-4 0  9990,2 50848  53.2189 179.4978 0002321  54.9204 305.2005 15.08840507 36554,6917.879,95.438,541.349,538.138,0.0
50848.0,STARLINK-3315,PAYLOAD,2022-09-04 04:24:23,15.0885261,0.0002389,53.2184,176.524,54.1635,305.9579,8.672299999999999e-05,1.093e-05,0.0,0 STARLINK-3315,1 50848U 22001AX  22247.18360420  .00001093  00000-0  86723-4 0  9994,2 50848  53.2184 176.5240 0002389  54.1635 305.9579 15.08852610 37960,6917.842,95.437,541.36,538.054,0.0
50848.0,STARLINK-3315,PAYLOAD,2022-09-04 12:21:19,15.08848974,0.0002359,53.2192,175.0376,57.4123,302.7097,5.1104e-05,5.25e-06,0.0,0 STARLINK-3315,1 50848U 22001AX  22247.51480705  .00000525  00000-0  51104-4 0  9994,2 50848  53.2192 175.0376 0002359  57.4123 302.7097 15.08848974 38013,6917.853,95.437,541.35,538.086,0.0
50848.0,STARLINK-3315,PAYLOAD,2022-09-05 04:15:10,15.08851374,0.000227,53.2187,172.0641,54.6717,305.4487,1.6961e-05,-1.8e-07,0.0,0 STARLINK-3315,1 50848U 22001AX  22248.17720319 -.00000018  00000-0  16961-4 0  9995,2 50848  53.2187 172.0641 0002270  54.6717 305.4487 15.08851374 36805,6917.846,95.437,541.281,538.14,0.0
50848.0,STARLINK-3315,PAYLOAD,2022-09-06 04:05:58,15.08833434,0.0002453,53.2191,167.6036,53.3354,306.7863,-0.00011495,-2.117e-05,0.0,0 STARLINK-3315,1 50848U 22001AX  22249.17081872 -.00002117  00000-0 -11495-3 0  9999,2 50848  53.2191 167.6036 0002453  53.3354 306.7863 15.08833434 36959,6917.9,95.438,541.462,538.068,0.0
50848.0,STARLINK-3315,PAYLOAD,2022-09-07 00:46:00,15.08823096,0.0002207,53.219,163.7396,55.4206,304.6994,-3.9187e-05,-9.12e-06,0.0,0 STARLINK-3315,1 50848U 22001AX  22250.03194851 -.00000912  00000-0 -39187-4 0  9998,2 50848  53.2190 163.7396 0002207  55.4206 304.6994 15.08823096 38395,6917.932,95.439,541.3240000000002,538.27,0.0
50848.0,STARLINK-3315,PAYLOAD,2022-09-07 03:56:46,15.08829513,0.0002041999999999,53.2192,163.1427,57.5446,302.5743,-5.799e-05,-1.211e-05,0.0,0 STARLINK-3315,1 50848U 22001AX  22250.16442603 -.00001211  00000-0 -57990-4 0  9998,2 50848  53.2192 163.1427 0002042  57.5446 302.5743 15.08829513 38414,6917.9119999999975,95.438,541.19,538.365,0.0
50848.0,STARLINK-3315,PAYLOAD,2022-09-08 03:47:32,15.0883619,0.0001933,53.2192,158.6834,49.0156,311.1003,9.1209e-05,1.164e-05,0.0,0 STARLINK-3315,1 50848U 22001AX  22251.15801997  .00001164  00000-0  91209-4 0  9999,2 50848  53.2192 158.6834 0001933  49.0156 311.1003 15.08836190 37252,6917.892,95.438,541.094,538.42,0.0
50848.0,STARLINK-3315,PAYLOAD,2022-09-09 09:59:51,15.08851212,0.0001873,53.2185,153.0345,42.6197,317.494,2.2961e-05,7.7e-07,0.0,0 STARLINK-3315,1 50848U 22001AX  22252.41657343  .00000077  00000-0  22961-4 0  9994,2 50848  53.2185 153.0345 0001873  42.6197 317.4940 15.08851212 37449,6917.846,95.437,541.007,538.415,0.0
50848.0,STARLINK-3315,PAYLOAD,2022-09-09 17:56:47,15.08844013,0.00016,53.2183,151.5471,49.1423,310.9708,6.0559e-05,6.76e-06,0.0,0 STARLINK-3315,1 50848U 22001AX  22252.74777462  .00000676  00000-0  60559-4 0  9995,2 50848  53.2183 151.5471 0001600  49.1423 310.9708 15.08844013 37498,6917.868,95.437,540.84,538.626,0.0
50848.0,STARLINK-3315,PAYLOAD,2022-09-10 03:29:06,15.08844928,0.0001735,53.2184,149.7631,45.0969,315.0163,6.0522e-05,6.75e-06,0.0,0 STARLINK-3315,1 50848U 22001AX  22253.14521333  .00000675  00000-0  60522-4 0  9993,2 50848  53.2184 149.7631 0001735  45.0969 315.0163 15.08844928 38863,6917.865,95.437,540.931,538.53,0.0
50848.0,STARLINK-3315,PAYLOAD,2022-09-10 20:58:21,15.08840996,0.0001744,53.2184,146.49200000000005,44.0764,316.0367,3.682e-06,-2.29e-06,0.0,0 STARLINK-3315,1 50848U 22001AX  22253.87385540 -.00000229  00000-0  36820-5 0  9992,2 50848  53.2184 146.4920 0001744  44.0764 316.0367 15.08840996 37665,6917.877,95.437,540.9490000000002,538.536,0.0
50848.0,STARLINK-3315,PAYLOAD,2022-09-11 01:44:31,15.08834132,0.0001751,53.2187,145.6005,46.026,314.0877,-5.2978e-05,-1.131e-05,0.0,0 STARLINK-3315,1 50848U 22001AX  22254.07258149 -.00001131  00000-0 -52978-4 0  9994,2 50848  53.2187 145.6005 0001751  46.0260 314.0877 15.08834132 39003,6917.898,95.438,540.975,538.552,0.0
50848.0,STARLINK-3315,PAYLOAD,2022-09-11 20:49:07,15.08864534,0.0001906,53.2188,142.0321,51.103,309.0132,-0.00021139,-3.653e-05,0.0,0 STARLINK-3315,1 50848U 22001AX  22254.86744582 -.00003653  00000-0 -21139-3 0  9997,2 50848  53.2188 142.0321 0001906  51.1030 309.0132 15.08864534 39120,6917.805,95.436,540.989,538.352,0.0
50848.0,STARLINK-3315,PAYLOAD,2022-09-12 01:35:16,15.08847084,0.0001892,53.2188,141.1398,45.4642,314.6504,8.8052e-05,1.114e-05,0.0,0 STARLINK-3315,1 50848U 22001AX  22255.06616862  .00001114  00000-0  88052-4 0  9995,2 50848  53.2188 141.1398 0001892  45.4642 314.6504 15.08847084 37846,6917.859,95.437,541.033,538.415,0.0
50848.0,STARLINK-3315,PAYLOAD,2022-09-12 23:50:41,15.08834968,0.0001844999999999,53.2184,136.9762,45.6292,314.4851,7.579699999999999e-05,9.18e-06,0.0,0 STARLINK-3315,1 50848U 22001AX  22255.99353627  .00000918  00000-0  75797-4 0  9997,2 50848  53.2184 136.9762 0001845  45.6292 314.4851 15.08834968 39291,6917.896,95.438,541.0369999999998,538.484,0.0
50848.0,STARLINK-3315,PAYLOAD,2022-09-13 09:23:00,15.08833958,0.0001894,53.2186,135.1926,48.4199,311.6956,6.7146e-05,7.8e-06,0.0,0 STARLINK-3315,1 50848U 22001AX  22256.39097858  .00000780  00000-0  67146-4 0  9999,2 50848  53.2186 135.1926 0001894  48.4199 311.6956 15.08833958 38042,6917.899,95.438,541.0740000000002,538.4540000000002,0.0
50848.0,STARLINK-3315,PAYLOAD,2022-09-13 22:06:05,15.0883612,0.000199,53.2187,132.8142,49.4401,310.6765,-1.5592e-05,-5.36e-06,0.0,0 STARLINK-3315,1 50848U 22001AX  22256.92090110 -.00000536  00000-0 -15592-4 0  9991,2 50848  53.2187 132.8142 0001990  49.4401 310.6765 15.08836120 38121,6917.892,95.438,541.134,538.381,0.0
50848.0,STARLINK-3315,PAYLOAD,2022-09-14 02:52:15,15.08837475,0.0001881,53.2183,131.9215,49.7565,310.3591,-4.1584e-05,-9.5e-06,0.0,0 STARLINK-3315,1 50848U 22001AX  22257.11962104 -.00000950  00000-0 -41584-4 0  9994,2 50848  53.2183 131.9215 0001881  49.7565 310.3591 15.08837475 38152,6917.888000000001,95.438,541.054,538.452,0.0
50848.0,STARLINK-3315,PAYLOAD,2022-09-14 18:46:06,15.08831348,0.0001794,53.2179,128.9471,52.4492,307.6663,2.8988e-05,1.73e-06,0.0,0 STARLINK-3315,1 50848U 22001AX  22257.78202375  .00000173  00000-0  28988-4 0  9992,2 50848  53.2179 128.9471 0001794  52.4492 307.6663 15.08831348 38253,6917.906999999997,95.438,541.013,538.531,0.0
